LEGION 1                
1 59625U 24081A   26204.24713321  .00003532  00000+0  18268-3 0  9999
2 59625  97.5002 281.7219 0007987 236.1302 123.9172 15.16882171123001
LEGION 2                
1 59626U 24081B   26204.21166592  .00003517  00000+0  18190-3 0  9996
2 59626  97.5003 281.7834 0010893 203.1236 156.9508 15.16862777123005
LEGION 3                
1 60452U 24146A   26204.24562006  .00003321  00000+0  18501-3 0  9999
2 60452  44.9999 197.2360 0007324  19.1941 340.9212 15.15689150107495
LEGION 4                
1 60453U 24146B   26204.31109233  .00003798  00000+0  20933-3 0  9997
2 60453  45.0020 288.7522 0009608 163.4204 196.6990 15.15725313106356
LEGION 5                
1 62900U 25025A   26204.11334461  .00003474  00000+0  19259-3 0  9994
2 62900  45.0013 108.7695 0007542 330.2022  29.8427 15.15741192 79945
LEGION 6                
1 62901U 25025B   26203.91481077  .00003527  00000+0  19531-3 0  9990
2 62901  45.0023  18.9811 0010485 315.9324  44.0718 15.15730655 81053
